SL-16 R/B               
1 22566U 93016B   25347.27057851 -.00000032  00000+0  80571-5 0  9997
2 22566  71.0081  36.6891 0007889  96.5140 263.6881 14.15286926689944
COSMOS 2242             
1 22626U 93024A   25347.30457631  .00003584  00000+0  31588-3 0  9993
2 22626  82.5195 349.3052 0014998 232.1597 127.8268 14.96112013767479
SL-16 R/B               
1 22803U 93059B   25347.29677979 -.00000130  00000+0 -40289-4 0  9990
2 22803  70.9890 193.3119 0018042 334.7376  25.2864 14.17213668667291
ARIANE 40 R/B           
1 22830U 93061H   25347.17693378  .00000409  00000+0  16592-3 0  9997
2 22830  98.5076  52.6989 0010899 174.7361 185.3939 14.32801818681714
COSMOS 2278             
1 23087U 94023A   25347.31387463 -.00000160  00000+0 -58766-4 0  9998
2 23087  71.0541 355.8102 0008304 178.7960 181.3184 14.14350404632594
SL-16 R/B               
1 23088U 94023B   25347.18766315  .00000007  00000+0  28172-4 0  9997
2 23088  71.0007 252.5451 0001392  25.2855 334.8335 14.15003067633855
SL-16 R/B               
1 23343U 94074B   25347.34177307  .00000810  00000+0  11545-3 0  9999
2 23343  97.7203  16.6224 0007581 134.1013 236.5118 14.79290963674485
SL-16 R/B               
1 23405U 94077B   25347.27367940  .00000317  00000+0  18650-3 0  9993
2 23405  70.9812 174.2903 0004669 283.7434  76.3169 14.15550178604004
ARIANE 40+ R/B          
1 23561U 95021B   25347.22433140  .00000518  00000+0  17938-3 0  9998
2 23561  98.4652  54.8073 0007468  48.7085  18.9208 14.39696240606809
SL-16 R/B               
1 23705U 95058B   25347.34705614  .00000020  00000+0  34443-4 0  9998
2 23705  71.0226   1.5293 0014984 254.7068 105.2399 14.15484116555633
SL-16 R/B               
1 24298U 96051B   25347.33848515  .00000049  00000+0  53111-4 0  9991
2 24298  70.7595 358.0166 0019413 260.5847  99.3078 14.12396895509456
ORBVIEW 2 (SEASTAR)     
1 24883U 97037A   25347.33353909  .00000531  00000+0  20127-3 0  9990
2 24883  98.8457 144.4230 0001630 339.5558  20.5561 14.35418110496088
