CCSDS_OMM_VERS = 2.0
CREATION_DATE  = 
ORIGINATOR     = 

OBJECT_NAME    = SL-16 R/B
OBJECT_ID      = 1993-016B
CENTER_NAME    = EARTH
REF_FRAME      = TEME
TIME_SYSTEM    = UTC
MEAN_ELEMENT_THEORY = SGP/SGP4

EPOCH          = 2025-12-13T06:29:37.983264
MEAN_MOTION    = 14.15286926
ECCENTRICITY   = .00078891
INCLINATION    = 71.0081
RA_OF_ASC_NODE = 36.6891
ARG_OF_PERICENTER = 96.5140
MEAN_ANOMALY   = 263.6881

EPHEMERIS_TYPE = 0
CLASSIFICATION_TYPE = U
NORAD_CAT_ID   = 22566
ELEMENT_SET_NO = 999
REV_AT_EPOCH   = 68994
BSTAR          = .8057105E-5
MEAN_MOTION_DOT = -.32E-6
MEAN_MOTION_DDOT = 0

CCSDS_OMM_VERS = 2.0
CREATION_DATE  = 
ORIGINATOR     = 

OBJECT_NAME    = COSMOS 2242
OBJECT_ID      = 1993-024A
CENTER_NAME    = EARTH
REF_FRAME      = TEME
TIME_SYSTEM    = UTC
MEAN_ELEMENT_THEORY = SGP/SGP4

EPOCH          = 2025-12-13T07:18:35.393184
MEAN_MOTION    = 14.96112013
ECCENTRICITY   = .00149982
INCLINATION    = 82.5195
RA_OF_ASC_NODE = 349.3052
ARG_OF_PERICENTER = 232.1597
MEAN_ANOMALY   = 127.8268

EPHEMERIS_TYPE = 0
CLASSIFICATION_TYPE = U
NORAD_CAT_ID   = 22626
ELEMENT_SET_NO = 999
REV_AT_EPOCH   = 76747
BSTAR          = .31587775E-3
MEAN_MOTION_DOT = .3584E-4
MEAN_MOTION_DDOT = 0

CCSDS_OMM_VERS = 2.0
CREATION_DATE  = 
ORIGINATOR     = 

OBJECT_NAME    = SL-16 R/B
OBJECT_ID      = 1993-059B
CENTER_NAME    = EARTH
REF_FRAME      = TEME
TIME_SYSTEM    = UTC
MEAN_ELEMENT_THEORY = SGP/SGP4

EPOCH          = 2025-12-13T07:07:21.773856
MEAN_MOTION    = 14.17213668
ECCENTRICITY   = .00180423
INCLINATION    = 70.9890
RA_OF_ASC_NODE = 193.3119
ARG_OF_PERICENTER = 334.7376
MEAN_ANOMALY   = 25.2864

EPHEMERIS_TYPE = 0
CLASSIFICATION_TYPE = U
NORAD_CAT_ID   = 22803
ELEMENT_SET_NO = 999
REV_AT_EPOCH   = 66729
BSTAR          = -.40289013E-4
MEAN_MOTION_DOT = -.13E-5
MEAN_MOTION_DDOT = 0

CCSDS_OMM_VERS = 2.0
CREATION_DATE  = 
ORIGINATOR     = 

OBJECT_NAME    = ARIANE 40 R/B
OBJECT_ID      = 1993-061H
CENTER_NAME    = EARTH
REF_FRAME      = TEME
TIME_SYSTEM    = UTC
MEAN_ELEMENT_THEORY = SGP/SGP4

EPOCH          = 2025-12-13T04:14:47.078592
MEAN_MOTION    = 14.32801818
ECCENTRICITY   = .00108992
INCLINATION    = 98.5076
RA_OF_ASC_NODE = 52.6989
ARG_OF_PERICENTER = 174.7361
MEAN_ANOMALY   = 185.3939

EPHEMERIS_TYPE = 0
CLASSIFICATION_TYPE = U
NORAD_CAT_ID   = 22830
ELEMENT_SET_NO = 999
REV_AT_EPOCH   = 68171
BSTAR          = .16592145E-3
MEAN_MOTION_DOT = .409E-5
MEAN_MOTION_DDOT = 0

CCSDS_OMM_VERS = 2.0
CREATION_DATE  = 
ORIGINATOR     = 

OBJECT_NAME    = COSMOS 2278
OBJECT_ID      = 1994-023A
CENTER_NAME    = EARTH
REF_FRAME      = TEME
TIME_SYSTEM    = UTC
MEAN_ELEMENT_THEORY = SGP/SGP4

EPOCH          = 2025-12-13T07:31:58.768032
MEAN_MOTION    = 14.14350404
ECCENTRICITY   = .00083043
INCLINATION    = 71.0541
RA_OF_ASC_NODE = 355.8102
ARG_OF_PERICENTER = 178.7960
MEAN_ANOMALY   = 181.3184

EPHEMERIS_TYPE = 0
CLASSIFICATION_TYPE = U
NORAD_CAT_ID   = 23087
ELEMENT_SET_NO = 999
REV_AT_EPOCH   = 63259
BSTAR          = -.58765594E-4
MEAN_MOTION_DOT = -.16E-5
MEAN_MOTION_DDOT = 0

CCSDS_OMM_VERS = 2.0
CREATION_DATE  = 
ORIGINATOR     = 

OBJECT_NAME    = SL-16 R/B
OBJECT_ID      = 1994-023B
CENTER_NAME    = EARTH
REF_FRAME      = TEME
TIME_SYSTEM    = UTC
MEAN_ELEMENT_THEORY = SGP/SGP4

EPOCH          = 2025-12-13T04:30:14.096160
MEAN_MOTION    = 14.15003067
ECCENTRICITY   = .00013929
INCLINATION    = 71.0007
RA_OF_ASC_NODE = 252.5451
ARG_OF_PERICENTER = 25.2855
MEAN_ANOMALY   = 334.8335

EPHEMERIS_TYPE = 0
CLASSIFICATION_TYPE = U
NORAD_CAT_ID   = 23088
ELEMENT_SET_NO = 999
REV_AT_EPOCH   = 63385
BSTAR          = .28171508E-4
MEAN_MOTION_DOT = .7E-7
MEAN_MOTION_DDOT = 0

CCSDS_OMM_VERS = 2.0
CREATION_DATE  = 
ORIGINATOR     = 

OBJECT_NAME    = SL-16 R/B
OBJECT_ID      = 1994-074B
CENTER_NAME    = EARTH
REF_FRAME      = TEME
TIME_SYSTEM    = UTC
MEAN_ELEMENT_THEORY = SGP/SGP4

EPOCH          = 2025-12-13T08:12:09.193248
MEAN_MOTION    = 14.79290963
ECCENTRICITY   = .00075817
INCLINATION    = 97.7203
RA_OF_ASC_NODE = 16.6224
ARG_OF_PERICENTER = 134.1013
MEAN_ANOMALY   = 236.5118

EPHEMERIS_TYPE = 0
CLASSIFICATION_TYPE = U
NORAD_CAT_ID   = 23343
ELEMENT_SET_NO = 999
REV_AT_EPOCH   = 67448
BSTAR          = .11544724E-3
MEAN_MOTION_DOT = .81E-5
MEAN_MOTION_DDOT = 0

CCSDS_OMM_VERS = 2.0
CREATION_DATE  = 
ORIGINATOR     = 

OBJECT_NAME    = SL-16 R/B
OBJECT_ID      = 1994-077B
CENTER_NAME    = EARTH
REF_FRAME      = TEME
TIME_SYSTEM    = UTC
MEAN_ELEMENT_THEORY = SGP/SGP4

EPOCH          = 2025-12-13T06:34:05.900160
MEAN_MOTION    = 14.15550178
ECCENTRICITY   = .00046697
INCLINATION    = 70.9812
RA_OF_ASC_NODE = 174.2903
ARG_OF_PERICENTER = 283.7434
MEAN_ANOMALY   = 76.3169

EPHEMERIS_TYPE = 0
CLASSIFICATION_TYPE = U
NORAD_CAT_ID   = 23405
ELEMENT_SET_NO = 999
REV_AT_EPOCH   = 60400
BSTAR          = .18650008E-3
MEAN_MOTION_DOT = .317E-5
MEAN_MOTION_DDOT = 0

CCSDS_OMM_VERS = 2.0
CREATION_DATE  = 
ORIGINATOR     = 

OBJECT_NAME    = ARIANE 40+ R/B
OBJECT_ID      = 1995-021B
CENTER_NAME    = EARTH
REF_FRAME      = TEME
TIME_SYSTEM    = UTC
MEAN_ELEMENT_THEORY = SGP/SGP4

EPOCH          = 2025-12-13T05:23:02.232960
MEAN_MOTION    = 14.39696240
ECCENTRICITY   = .00074687
INCLINATION    = 98.4652
RA_OF_ASC_NODE = 54.8073
ARG_OF_PERICENTER = 48.7085
MEAN_ANOMALY   = 18.9208

EPHEMERIS_TYPE = 0
CLASSIFICATION_TYPE = U
NORAD_CAT_ID   = 23561
ELEMENT_SET_NO = 999
REV_AT_EPOCH   = 60680
BSTAR          = .17937828E-3
MEAN_MOTION_DOT = .518E-5
MEAN_MOTION_DDOT = 0

CCSDS_OMM_VERS = 2.0
CREATION_DATE  = 
ORIGINATOR     = 

OBJECT_NAME    = SL-16 R/B
OBJECT_ID      = 1995-058B
CENTER_NAME    = EARTH
REF_FRAME      = TEME
TIME_SYSTEM    = UTC
MEAN_ELEMENT_THEORY = SGP/SGP4

EPOCH          = 2025-12-13T08:19:45.650496
MEAN_MOTION    = 14.15484116
ECCENTRICITY   = .00149845
INCLINATION    = 71.0226
RA_OF_ASC_NODE = 1.5293
ARG_OF_PERICENTER = 254.7068
MEAN_ANOMALY   = 105.2399

EPHEMERIS_TYPE = 0
CLASSIFICATION_TYPE = U
NORAD_CAT_ID   = 23705
ELEMENT_SET_NO = 999
REV_AT_EPOCH   = 55563
BSTAR          = .34443209E-4
MEAN_MOTION_DOT = .2E-6
MEAN_MOTION_DDOT = 0

CCSDS_OMM_VERS = 2.0
CREATION_DATE  = 
ORIGINATOR     = 

OBJECT_NAME    = SL-16 R/B
OBJECT_ID      = 1996-051B
CENTER_NAME    = EARTH
REF_FRAME      = TEME
TIME_SYSTEM    = UTC
MEAN_ELEMENT_THEORY = SGP/SGP4

EPOCH          = 2025-12-13T08:07:25.116960
MEAN_MOTION    = 14.12396895
ECCENTRICITY   = .00194137
INCLINATION    = 70.7595
RA_OF_ASC_NODE = 358.0166
ARG_OF_PERICENTER = 260.5847
MEAN_ANOMALY   = 99.3078

EPHEMERIS_TYPE = 0
CLASSIFICATION_TYPE = U
NORAD_CAT_ID   = 24298
ELEMENT_SET_NO = 999
REV_AT_EPOCH   = 50945
BSTAR          = .53110549E-4
MEAN_MOTION_DOT = .49E-6
MEAN_MOTION_DDOT = 0

CCSDS_OMM_VERS = 2.0
CREATION_DATE  = 
ORIGINATOR     = 

OBJECT_NAME    = ORBVIEW 2 (SEASTAR)
OBJECT_ID      = 1997-037A
CENTER_NAME    = EARTH
REF_FRAME      = TEME
TIME_SYSTEM    = UTC
MEAN_ELEMENT_THEORY = SGP/SGP4

EPOCH          = 2025-12-13T08:00:17.777376
MEAN_MOTION    = 14.35418110
ECCENTRICITY   = .00016306
INCLINATION    = 98.8457
RA_OF_ASC_NODE = 144.4230
ARG_OF_PERICENTER = 339.5558
MEAN_ANOMALY   = 20.5561

EPHEMERIS_TYPE = 0
CLASSIFICATION_TYPE = U
NORAD_CAT_ID   = 24883
ELEMENT_SET_NO = 999
REV_AT_EPOCH   = 49608
BSTAR          = .20127346E-3
MEAN_MOTION_DOT = .531E-5
MEAN_MOTION_DDOT = 0

